start=new Date('2022-03-02T00:00:00.000Z').valueOf();
sats=[{"DECAY_DATE":null,"RCS_SIZE":"LARGE","APOAPSIS":"548.525","MEAN_ELEMENT_THEORY":"SGP4","FILE":"3338635","BSTAR":"0.00000361870000","OBJECT_TYPE":"PAYLOAD","MEAN_ANOMALY":"294.0433","SITE":"AFETR","GP_ID":"197541015","RA_OF_ASC_NODE":"320.3113","LAUNCH_DATE":"2019-11-11","ARG_OF_PERICENTER":"66.0753","CENTER_NAME":"EARTH","OBJECT_NAME":"STARLINK-1060","MEAN_MOTION":"15.06397350","NORAD_CAT_ID":"44765","REF_FRAME":"TEME","PERIOD":"95.592","ECCENTRICITY":"0.00018820","ELEMENT_SET_NO":"999","TLE_LINE2":"2 44765  53.0547 320.3113 0001882  66.0753 294.0433 15.06397350127083","EPOCH":"2022-03-01T21:20:49.887456","MEAN_MOTION_DOT":"-0.00000228","COUNTRY_CODE":"US","TLE_LINE1":"1 44765U 19074BE  22060.88946629 -.00000228  00000-0  36187-5 0  9992","EPHEMERIS_TYPE":"0","PERIAPSIS":"545.918","MEAN_MOTION_DDOT":"0.0000000000000","INCLINATION":"53.0547","REV_AT_EPOCH":"12708","SEMIMAJOR_AXIS":"6925.357","TIME_SYSTEM":"UTC","OBJECT_ID":"2019-074BE","CLASSIFICATION_TYPE":"U"},{"DECAY_DATE":null,"RCS_SIZE":"LARGE","APOAPSIS":"548.319","MEAN_ELEMENT_THEORY":"SGP4","BSTAR":"-0.00013613000000","FILE":"3338635","OBJECT_TYPE":"PAYLOAD","GP_ID":"197539763","MEAN_ANOMALY":"286.7189","SITE":"AFETR","RA_OF_ASC_NODE":"340.3207","LAUNCH_DATE":"2019-11-11","CENTER_NAME":"EARTH","OBJECT_NAME":"STARLINK-1061","ARG_OF_PERICENTER":"73.3972","MEAN_MOTION":"15.06395132","NORAD_CAT_ID":"44766","REF_FRAME":"TEME","PERIOD":"95.592","ECCENTRICITY":"0.00015740","ELEMENT_SET_NO":"999","TLE_LINE2":"2 44766  53.0565 340.3207 0001574  73.3972 286.7189 15.06395132126814","MEAN_MOTION_DOT":"-0.00002308","EPOCH":"2022-03-01T21:18:10.457856","PERIAPSIS":"546.138","COUNTRY_CODE":"US","TLE_LINE1":"1 44766U 19074BF  22060.88762104 -.00002308  00000-0 -13613-3 0  9996","EPHEMERIS_TYPE":"0","MEAN_MOTION_DDOT":"0.0000000000000","REV_AT_EPOCH":"12681","INCLINATION":"53.0565","TIME_SYSTEM":"UTC","SEMIMAJOR_AXIS":"6925.363","OBJECT_ID":"2019-074BF","CLASSIFICATION_TYPE":"U"},{"DECAY_DATE":null,"RCS_SIZE":"LARGE","APOAPSIS":"548.507","MEAN_ELEMENT_THEORY":"SGP4","FILE":"3338635","BSTAR":"0.00007927700000","OBJECT_TYPE":"PAYLOAD","MEAN_ANOMALY":"300.0934","SITE":"AFETR","GP_ID":"197540013","RA_OF_ASC_NODE":"341.8400","LAUNCH_DATE":"2019-11-11","ARG_OF_PERICENTER":"60.0243","CENTER_NAME":"EARTH","OBJECT_NAME":"STARLINK-1062","MEAN_MOTION":"15.06404445","NORAD_CAT_ID":"44767","REF_FRAME":"TEME","ECCENTRICITY":"0.00018880","PERIOD":"95.592","ELEMENT_SET_NO":"999","TLE_LINE2":"2 44767  53.0555 341.8400 0001888  60.0243 300.0934 15.06404445126767","EPOCH":"2022-03-01T13:09:51.807456","MEAN_MOTION_DOT":"0.00000899","EPHEMERIS_TYPE":"0","TLE_LINE1":"1 44767U 19074BG  22060.54851629  .00000899  00000-0  79277-4 0  9991","COUNTRY_CODE":"US","PERIAPSIS":"545.892","MEAN_MOTION_DDOT":"0.0000000000000","REV_AT_EPOCH":"12676","INCLINATION":"53.0555","SEMIMAJOR_AXIS":"6925.335","TIME_SYSTEM":"UTC","OBJECT_ID":"2019-074BG","CLASSIFICATION_TYPE":"U"},{"MEAN_ELEMENT_THEORY":"SGP4","APOAPSIS":"548.470","DECAY_DATE":null,"RCS_SIZE":"LARGE","MEAN_ANOMALY":"298.0298","SITE":"AFETR","GP_ID":"197489299","OBJECT_TYPE":"PAYLOAD","FILE":"3337314","BSTAR":"0.00011506000000","LAUNCH_DATE":"2019-11-11","RA_OF_ASC_NODE":"343.5301","MEAN_MOTION":"15.06397850","ARG_OF_PERICENTER":"62.0873","OBJECT_NAME":"STARLINK-1063","CENTER_NAME":"EARTH","PERIOD":"95.592","ECCENTRICITY":"0.00018050","REF_FRAME":"TEME","NORAD_CAT_ID":"44768","EPOCH":"2022-03-01T04:08:28.266432","MEAN_MOTION_DOT":"0.00001433","TLE_LINE2":"2 44768  53.0552 343.5301 0001805  62.0873 298.0298 15.06397850126719","ELEMENT_SET_NO":"999","MEAN_MOTION_DDOT":"0.0000000000000","TLE_LINE1":"1 44768U 19074BH  22060.17254938  .00001433  00000-0  11506-3 0  9996","EPHEMERIS_TYPE":"0","COUNTRY_CODE":"US","PERIAPSIS":"545.970","CLASSIFICATION_TYPE":"U","OBJECT_ID":"2019-074BH","SEMIMAJOR_AXIS":"6925.355","TIME_SYSTEM":"UTC","INCLINATION":"53.0552","REV_AT_EPOCH":"12671"},{"MEAN_MOTION_DDOT":"0.0000000000000","PERIAPSIS":"530.778","COUNTRY_CODE":"US","TLE_LINE1":"1 44770U 19074BK  22060.68449269  .00012792  00000-0  77030-3 0  9992","EPHEMERIS_TYPE":"0","CLASSIFICATION_TYPE":"U","OBJECT_ID":"2019-074BK","TIME_SYSTEM":"UTC","SEMIMAJOR_AXIS":"6910.859","INCLINATION":"53.0030","REV_AT_EPOCH":"12688","PERIOD":"95.292","ECCENTRICITY":"0.00028170","REF_FRAME":"TEME","NORAD_CAT_ID":"44770","MEAN_MOTION_DOT":"0.00012792","EPOCH":"2022-03-01T16:25:40.168416","TLE_LINE2":"2 44770  53.0030 331.8547 0002817 105.5707 254.5594 15.11139881126886","ELEMENT_SET_NO":"999","LAUNCH_DATE":"2019-11-11","RA_OF_ASC_NODE":"331.8547","MEAN_MOTION":"15.11139881","OBJECT_NAME":"STARLINK-1065","CENTER_NAME":"EARTH","ARG_OF_PERICENTER":"105.5707","MEAN_ELEMENT_THEORY":"SGP4","APOAPSIS":"534.671","RCS_SIZE":"LARGE","DECAY_DATE":null,"GP_ID":"197540516","MEAN_ANOMALY":"254.5594","SITE":"AFETR","OBJECT_TYPE":"PAYLOAD","BSTAR":"0.00077030000000","FILE":"3338635"},{"ARG_OF_PERICENTER":"58.9378","OBJECT_NAME":"STARLINK-1067","CENTER_NAME":"EARTH","MEAN_MOTION":"15.06417568","RA_OF_ASC_NODE":"340.9030","LAUNCH_DATE":"2019-11-11","FILE":"3338635","BSTAR":"-0.00015937000000","MEAN_ANOMALY":"301.1816","SITE":"AFETR","GP_ID":"197539264","OBJECT_TYPE":"PAYLOAD","APOAPSIS":"548.605","RCS_SIZE":"LARGE","DECAY_DATE":null,"MEAN_ELEMENT_THEORY":"SGP4","SEMIMAJOR_AXIS":"6925.295","TIME_SYSTEM":"UTC","INCLINATION":"53.0550","REV_AT_EPOCH":"12679","CLASSIFICATION_TYPE":"U","OBJECT_ID":"2019-074BL","TLE_LINE1":"1 44771U 19074BL  22060.75860969 -.00002656  00000-0 -15937-3 0  9993","EPHEMERIS_TYPE":"0","COUNTRY_CODE":"US","PERIAPSIS":"545.714","MEAN_MOTION_DDOT":"0.0000000000000","TLE_LINE2":"2 44771  53.0550 340.9030 0002087  58.9378 301.1816 15.06417568126797","ELEMENT_SET_NO":"999","EPOCH":"2022-03-01T18:12:23.877216","MEAN_MOTION_DOT":"-0.00002656","NORAD_CAT_ID":"44771","PERIOD":"95.591","ECCENTRICITY":"0.00020870","REF_FRAME":"TEME"},{"REF_FRAME":"TEME","ECCENTRICITY":"0.00015320","PERIOD":"95.592","NORAD_CAT_ID":"44772","MEAN_MOTION_DOT":"-0.00000611","EPOCH":"2022-03-01T21:10:13.087488","ELEMENT_SET_NO":"999","TLE_LINE2":"2 44772  53.0559 320.3584 0001532  72.7020 287.4136 15.06396439127082","MEAN_MOTION_DDOT":"0.0000000000000","PERIAPSIS":"546.164","TLE_LINE1":"1 44772U 19074BM  22060.88209592 -.00000611  00000-0 -22149-4 0  9990","COUNTRY_CODE":"US","EPHEMERIS_TYPE":"0","OBJECT_ID":"2019-074BM","CLASSIFICATION_TYPE":"U","INCLINATION":"53.0559","REV_AT_EPOCH":"12708","TIME_SYSTEM":"UTC","SEMIMAJOR_AXIS":"6925.359","MEAN_ELEMENT_THEORY":"SGP4","DECAY_DATE":null,"RCS_SIZE":"LARGE","APOAPSIS":"548.285","OBJECT_TYPE":"PAYLOAD","GP_ID":"197539514","MEAN_ANOMALY":"287.4136","SITE":"AFETR","BSTAR":"-0.00002214900000","FILE":"3338635","LAUNCH_DATE":"2019-11-11","RA_OF_ASC_NODE":"320.3584","MEAN_MOTION":"15.06396439","OBJECT_NAME":"STARLINK-1068","CENTER_NAME":"EARTH","ARG_OF_PERICENTER":"72.7020"},{"MEAN_MOTION":"15.06404129","OBJECT_NAME":"STARLINK-1073","CENTER_NAME":"EARTH","ARG_OF_PERICENTER":"64.8846","LAUNCH_DATE":"2020-01-07","RA_OF_ASC_NODE":"100.5717","OBJECT_TYPE":"PAYLOAD","GP_ID":"197540779","SITE":"AFETR","MEAN_ANOMALY":"295.2316","BSTAR":"0.00018902000000","FILE":"3338635","MEAN_ELEMENT_THEORY":"SGP4","RCS_SIZE":"LARGE","DECAY_DATE":null,"APOAPSIS":"548.354","OBJECT_ID":"2020-001A","CLASSIFICATION_TYPE":"U","REV_AT_EPOCH":"11845","INCLINATION":"53.0525","TIME_SYSTEM":"UTC","SEMIMAJOR_AXIS":"6925.336","MEAN_MOTION_DDOT":"0.0000000000000","PERIAPSIS":"546.048","TLE_LINE1":"1 44914U 20001A   22060.83233034  .00002535  00000-0  18902-3 0  9999","EPHEMERIS_TYPE":"0","COUNTRY_CODE":"US","MEAN_MOTION_DOT":"0.00002535","EPOCH":"2022-03-01T19:58:33.341376","ELEMENT_SET_NO":"999","TLE_LINE2":"2 44914  53.0525 100.5717 0001665  64.8846 295.2316 15.06404129118458","REF_FRAME":"TEME","ECCENTRICITY":"0.00016650","PERIOD":"95.592","NORAD_CAT_ID":"44914"},{"CLASSIFICATION_TYPE":"U","OBJECT_ID":"2020-001B","SEMIMAJOR_AXIS":"6925.323","TIME_SYSTEM":"UTC","REV_AT_EPOCH":"11841","INCLINATION":"53.0521","MEAN_MOTION_DDOT":"0.0000000000000","TLE_LINE1":"1 44915U 20001B   22060.53008377  .00002829  00000-0  20866-3 0  9995","COUNTRY_CODE":"US","EPHEMERIS_TYPE":"0","PERIAPSIS":"546.137","EPOCH":"2022-03-01T12:43:19.237728","MEAN_MOTION_DOT":"0.00002829","TLE_LINE2":"2 44915  53.0521 101.9237 0001517  66.8639 293.2509 15.06408484118411","ELEMENT_SET_NO":"999","PERIOD":"95.592","ECCENTRICITY":"0.00015170","REF_FRAME":"TEME","NORAD_CAT_ID":"44915","MEAN_MOTION":"15.06408484","ARG_OF_PERICENTER":"66.8639","CENTER_NAME":"EARTH","OBJECT_NAME":"STARLINK-1084","LAUNCH_DATE":"2020-01-07","RA_OF_ASC_NODE":"101.9237","MEAN_ANOMALY":"293.2509","SITE":"AFETR","GP_ID":"197487564","OBJECT_TYPE":"PAYLOAD","FILE":"3337314","BSTAR":"0.00020866000000","MEAN_ELEMENT_THEORY":"SGP4","APOAPSIS":"548.238","DECAY_DATE":null,"RCS_SIZE":"LARGE"},{"TLE_LINE2":"2 44917  53.0528 101.6183 0001728  53.3252 306.7895 15.06403788118424","ELEMENT_SET_NO":"999","MEAN_MOTION_DOT":"0.00000631","EPOCH":"2022-03-01T14:24:10.244448","NORAD_CAT_ID":"44917","ECCENTRICITY":"0.00017280","PERIOD":"95.592","REF_FRAME":"TEME","TIME_SYSTEM":"UTC","SEMIMAJOR_AXIS":"6925.337","INCLINATION":"53.0528","REV_AT_EPOCH":"11842","CLASSIFICATION_TYPE":"U","OBJECT_ID":"2020-001D","PERIAPSIS":"546.005","TLE_LINE1":"1 44917U 20001D   22060.60011857  .00000631  00000-0  61231-4 0  9993","COUNTRY_CODE":"US","EPHEMERIS_TYPE":"0","MEAN_MOTION_DDOT":"0.0000000000000","BSTAR":"0.00006123100000","FILE":"3338635","GP_ID":"197539778","MEAN_ANOMALY":"306.7895","SITE":"AFETR","OBJECT_TYPE":"PAYLOAD","APOAPSIS":"548.399","RCS_SIZE":"LARGE","DECAY_DATE":null,"MEAN_ELEMENT_THEORY":"SGP4","CENTER_NAME":"EARTH","OBJECT_NAME":"STARLINK-1098","ARG_OF_PERICENTER":"53.3252","MEAN_MOTION":"15.06403788","RA_OF_ASC_NODE":"101.6183","LAUNCH_DATE":"2020-01-07"}];
